IRIDIUM 166             
1 43570U 18061B   23364.14160283  .00000369  00000+0  12462-3 0  9993
2 43570  86.3958  72.8933 0002169  87.5328 272.6116 14.34218759284398
IRIDIUM 158             
1 43571U 18061C   23363.76104703 -.00000146  00000+0 -59325-4 0  9991
2 43571  86.3959  73.0612 0001690  89.3150 270.8240 14.34216364284307
IRIDIUM 165             
1 43572U 18061D   23363.71664668  .00000397  00000+0  13475-3 0  9999
2 43572  86.3960  73.1094 0001822  90.9308 269.2096 14.34218816284322
IRIDIUM 155             
1 43573U 18061E   23364.16697282  .00000371  00000+0  12524-3 0  9994
2 43573  86.3956  72.8346 0002335  91.9766 268.1697 14.34218555284362
IRIDIUM 154             
1 43574U 18061F   23364.14794030  .00000373  00000+0  12612-3 0  9992
2 43574  86.3960  72.9322 0002114 101.7511 258.3922 14.34218862284404
IRIDIUM 163             
1 43575U 18061G   23364.19868590  .00000519  00000+0  17811-3 0  9999
2 43575  86.3958  72.8540 0002115  95.7660 264.3777 14.34218749284387
IRIDIUM 156             
1 43576U 18061H   23363.68493195  .00000037  00000+0  60549-5 0  9991
2 43576  86.3958  73.0750 0002026  89.5520 270.5908 14.34215170284303
IRIDIUM 164             
1 43577U 18061J   23363.73567640  .00000468  00000+0  15999-3 0  9990
2 43577  86.3959  73.0803 0001815  87.5042 272.6361 14.34216760284353
